EUTELSAT QUANTUM        
1 49056U 21069B   25298.84138920  .00000138  00000+0  00000+0 0  9993
2 49056   0.0540  67.1075 0002515 161.9231 156.0778  1.00271950 15574
EUTELSAT KONNECT VHTS   
1 53765U 22110A   25298.83246250  .00000029  00000+0  00000+0 0  9997
2 53765   0.0578  92.5241 0002600  96.2674 148.0843  1.00269932  4478
EUTELSAT HOTBIRD 13F    
1 54048U 22134A   25298.16205800  .00000100  00000+0  00000+0 0  9990
2 54048   0.0520 284.8232 0002090  82.0564  98.2934  1.00272746 11023
EUTELSAT HOTBIRD 13G    
1 54225U 22146A   25298.69182648  .00000100  00000+0  00000+0 0  9992
2 54225   0.0440 237.0292 0002185 294.9314 124.4301  1.00271626  5118
EUTELSAT 10B            
1 54259U 22157A   25298.83393583  .00000081  00000+0  00000+0 0  9997
2 54259   0.0598  90.3343 0001501  33.4546 220.9207  1.00273703 10672
EUTELSAT 36D            
1 59346U 24059A   25298.76774685  .00000168  00000+0  00000+0 0  9996
2 59346   0.0181 236.8476 0000266 183.0918 286.7158  1.00272427  5792
